SARSAT 7 (NOAA 15)      
1 25338U 98030A   17288.49529043  .00000057  00000-0  23836-4 0  9991
2 25338  98.7843 299.6383 0010164 216.8147 143.2938 14.25820166 10144
GPS BIIR-07             
1 26690U 01004A   17285.43338838  .00000003  00000-0  00000+0 0  9993
2 26690  53.0565 152.9301 0183417 258.2806 220.1169  2.00567594122368
METEOSAT-8 (MSG-1)      
1 27509U 02040B   17285.14938987  .00000123  00000-0  00000+0 0  9996
2 27509   5.0417  57.8548 0000464 266.0945 152.3904  1.00261825 55464
GPS BIIR-08             
1 27663U 03005A   17285.22284473 -.00000065  00000-0  00000+0 0  9998
2 27663  56.6592 340.3309 0091996  24.9270  34.3510  2.00552054107725
GPS BIIR-11             
1 28190U 04009A   17285.02405110 -.00000054  00000-0  00000+0 0  9998
2 28190  56.0654  41.2988 0097588  61.3055  10.8401  2.00562842 99390
GPS BIIR-12             
1 28361U 04023A   17285.40890420 -.00000018  00000-0  00000+0 0  9998
2 28361  54.0897 215.1805 0120221 222.2640  37.6577  2.00563757 97481
GPS BIIR-13             
1 28474U 04045A   17285.39259674  .00000026  00000-0  00000+0 0  9993
2 28474  54.3074  92.8741 0173500 248.5198   3.0898  2.00571927 94851
SARSAT 10 (NOAA 18)     
1 28654U 05018A   17288.48807442  .00000169  00000-0  91852-4 0  9997
2 28654  99.1784 313.5979 0014690  94.0633 266.2836 14.12354577639243
GPS BIIR-14M            
1 28874U 05038A   17285.42993253 -.00000061  00000-0  00000+0 0  9992
2 28874  56.2172  38.5612 0122077 254.8248 132.2168  2.00561025 88258
MSG-2                   
1 28912U 05049B   17285.17479922  .00000041  00000-0  00000+0 0  9998
2 28912   2.4271  71.3550 0001497 227.8171 153.9750  1.00269631 43296
GOES 13                 
1 29155U 06018A   17285.14901644 -.00000272  00000-0  00000+0 0  9990
2 29155   0.0954 107.6677 0001896   5.2940 247.0817  1.00274234 41737
SARSAT 11 (METOP-A)     
1 29499U 06044A   17288.43298774  .00000059  00000-0  26780-4 0  9998
2 29499  98.6648 345.9503 0000899 165.0108 195.1722 14.21510835570225
GPS BIIR-16M            
1 29601U 06052A   17284.94917003 -.00000064  00000-0  00000+0 0  9996
2 29601  56.6330 339.2595 0063440  51.0280 309.5929  2.00560180 79872
GPS BIIR-17M            
1 32260U 07047A   17284.76632366 -.00000012  00000-0  00000+0 0  9995
2 32260  53.2152 211.4515 0096050  34.1368 326.4925  2.00568264 73258
GPS BIIR-18M            
1 32384U 07062A   17285.15715535 -.00000058  00000-0  00000+0 0  9993
2 32384  56.2843  39.1616 0002990  23.8786  37.7994  2.00577721 71996
SARSAT 12 (NOAA 19)     
1 33591U 09005A   17288.43141343  .00000063  00000-0  34290-4 0  9995
2 33591  99.1077 257.0461 0013872 296.1360  63.8880 14.12217483447628
GOES 14                 
1 35491U 09033A   17285.23134933 -.00000115  00000-0  00000+0 0  9995
2 35491   0.3035 274.6586 0010565 307.8885 137.3942  1.00272617 30377
GOES 15                 
1 36411U 10008A   17285.31738193  .00000067  00000-0  00000+0 0  9994
2 36411   0.2768 275.1535 0004852 278.5618 166.2945  1.00276191 27902
ELEKTRO-L 1             
1 37344U 11001A   17284.39924868 -.00000205  00000-0  00000-0 0  9993
2 37344   2.6708  77.4527 0003473 261.0219  99.2107  1.00160328 24696
GLONASS-K 1             
1 37372U 11009A   17284.68506683  .00000005  00000-0  00000-0 0  9992
2 37372  65.4595  60.6977 0007538 221.2568 149.7694  2.13107683 51537
GPS BIIF-2              
1 37753U 11036A   17285.42541199  .00000033  00000-0  00000+0 0  9999
2 37753  55.5113  96.0991 0069500  34.5519   4.7146  2.00562906 45694
GSAT0101 (GALILEO-PFM)  
1 37846U 11060A   17283.77040912 -.00000011  00000-0  00000-0 0  9990
2 37846  55.9171  68.4787 0001664   4.4621 355.5349  1.70473393 37058
GSAT0102 (GALILEO-FM2)  
1 37847U 11060B   17284.37621823 -.00000012  00000-0  00000+0 0  9994
2 37847  55.9183  68.4609 0002325 310.6169 105.5446  1.70475706 37195
LUCH 5A                 
1 37951U 11074B   17284.81149569 -.00000064  00000-0  00000+0 0  9993
2 37951   1.6067 169.3889 0003090  67.2554 243.2155  1.00267914 21399
MSG-3                   
1 38552U 12035B   17284.94247429 -.00000027  00000-0  00000+0 0  9996
2 38552   0.8378   6.7985 0001543 232.1524 121.0577  1.00265089 19439
SARSAT 13 (METOP-B)     
1 38771U 12049A   17288.47135948  .00000077  00000-0  35228-4 0  9997
2 38771  98.7097 346.6999 0000715 279.4179  80.7543 14.21490063263363
GPS BIIF-3              
1 38833U 12053A   17284.86174082  .00000015  00000-0  00000+0 0  9999
2 38833  54.0870 273.7585 0059572  24.8255 335.4592  2.00563261 36759
GSAT0103 (GALILEO-FM3)  
1 38857U 12055A   17282.64000334  .00000008  00000-0  00000+0 0  9991
2 38857  54.9042 188.8661 0002934 248.0056 112.0240  1.70473722 31083
GSAT0104 (GALILEO-FM4)  
1 38858U 12055B   17282.57427250  .00000008  00000-0  00000-0 0  9995
2 38858  54.9049 188.8669 0001850 252.5167 107.5240  1.70473791 31072
GPS BIIF-4              
1 39166U 13023A   17285.21333193 -.00000064  00000-0  00000+0 0  9992
2 39166  55.9213  35.5467 0048750  19.6986 340.4984  2.00563889 32294
INSAT-3D                
1 39216U 13038B   17284.71482915 -.00000177  00000-0  00000-0 0  9991
2 39216   0.0707  91.0392 0001360 160.0974 108.8734  1.00271072 15320
GPS BIIF-5              
1 39533U 14008A   17285.21562202  .00000012  00000-0  00000+0 0  9991
2 39533  54.2381 279.0575 0030764 189.4062 170.5418  2.00569626 26654
LUCH 5V                 
1 39727U 14023A   17284.93973324 -.00000293  00000-0  00000-0 0  9995
2 39727   2.4839 299.0451 0002538 310.1886 204.4992  1.00274086530737
GPS BIIF-6              
1 39741U 14026A   17284.99898547  .00000031  00000-0  00000+0 0  9991
2 39741  55.4968  95.6374 0007811 285.7269  74.2171  2.00553065 24939
GPS BIIF-7              
1 40105U 14045A   17285.08633850 -.00000013  00000-0  00000+0 0  9994
2 40105  54.6142 215.1633 0006610 108.4872 251.5948  2.00553260 23381
GSAT0201 (GALILEO 5)    
1 40128U 14050A   17284.48645385 -.00000064  00000-0  00000-0 0  9991
2 40128  50.3686  40.5526 1632696  67.5432 308.8760  1.85519540 19524
GSAT0202 (GALILEO 6)    
1 40129U 14050B   17284.75369457 -.00000067  00000-0  00000-0 0  9998
2 40129  50.4208  39.5430 1633394  68.5307 308.0412  1.85520218 21664
GPS BIIF-8              
1 40294U 14068A   17284.96152013  .00000005  00000-0  00000+0 0  9991
2 40294  55.0162 155.8544 0009562  17.2615 342.8547  2.00567175 21601
GLONASS-K 2             
1 40315U 14075A   17284.63649720  .00000018  00000-0  00000-0 0  9998
2 40315  64.3506 301.2594 0017041 211.7351 243.1756  2.13098682 22298
GPS BIIF-9              
1 40534U 15013A   17285.10214191 -.00000061  00000-0  00000+0 0  9995
2 40534  54.8851 334.9668 0020109 350.9802   9.0396  2.00551079 18675
GSAT0203 (GALILEO 7)    
1 40544U 15017A   17285.31073334 -.00000014  00000-0  00000+0 0  9993
2 40544  55.7077  68.7086 0002789 204.1307 155.8534  1.70475273 15810
GSAT0204 (GALILEO 8)    
1 40545U 15017B   17282.16076155 -.00000009  00000-0  00000+0 0  9992
2 40545  55.7117  68.8089 0002985 151.9701 208.0396  1.70475434 15776
GPS BIIF-10             
1 40730U 15033A   17284.75626132 -.00000062  00000-0  00000+0 0  9998
2 40730  55.4544  35.1833 0028390 319.8549  39.9471  2.00560383 16420
GSAT0205 (GALILEO 9)    
1 40889U 15045A   17282.40132723 -.00000016  00000-0  00000-0 0  9994
2 40889  56.9314 309.0184 0002293 303.9982  56.0268  1.70474752 12922
GSAT0206 (GALILEO 10)   
1 40890U 15045B   17284.96754978 -.00000019  00000-0  00000+0 0  9993
2 40890  56.9286 308.9452 0002353 265.0213  94.9945  1.70474743 12990
GPS BIIF-11             
1 41019U 15062A   17284.81023130  .00000006  00000-0  00000+0 0  9994
2 41019  55.0241 155.6535 0028966 199.7471 160.2241  2.00563743 14240
GSAT0209 (GALILEO 12)   
1 41174U 15079A   17285.13965361 -.00000013  00000-0  00000+0 0  9990
2 41174  54.9169 188.4856 0004511 300.0014  60.0063  1.70472567 11312
GSAT0208 (GALILEO 11)   
1 41175U 15079B   17284.18639493 -.00000004  00000-0  00000+0 0  9999
2 41175  54.9155 188.5128 0003583 300.4662  59.5552  1.70472955 11308
GPS BIIF-12             
1 41328U 16007A   17284.90251469 -.00000009  00000-0  00000+0 0  9999
2 41328  54.8693 215.3927 0016112 219.8851 140.0070  2.00572414 12302
GSAT0211 (GALILEO 14)   
1 41549U 16030A   17284.30667935 -.00000018  00000-0  00000+0 0  9993
2 41549  57.0693 308.7202 0004561 265.2283  94.7620  1.70474529  8590
GSAT0210 (GALILEO 13)   
1 41550U 16030B   17284.01331889 -.00000018  00000-0  00000+0 0  9999
2 41550  57.0687 308.7300 0004959 243.9730 116.0185  1.70474533  8594
GSAT0207 (GALILEO 15)   
1 41859U 16069A   17283.08691794  .00000004  00000-0  00000+0 0  9997
2 41859  54.5764 189.1525 0004231 285.9641  74.0487  1.70472929  5552
GSAT0212 (GALILEO 16)   
1 41860U 16069B   17275.90120459 -.00000007  00000-0  00000+0 0  9990
2 41860  54.5784 189.3586 0003897 294.6905  65.3050  1.70473095  5455
GSAT0213 (GALILEO 17)   
1 41861U 16069C   17282.72021373  .00000007  00000-0  00000-0 0  9994
2 41861  54.5764 189.1659 0003163 260.2035  99.8208  1.70473049  5571
GSAT0214 (GALILEO 18)   
1 41862U 16069D   17282.86689599  .00000006  00000-0  00000-0 0  9999
2 41862  54.5747 189.1584 0002450 265.3375  94.6944  1.70472880  5562
